SOYUZ-MS 28             
1 66664U 25275A   25344.54178148  .00015517  00000+0  28443-3 0  9997
2 66664  51.6308 153.3620 0003360 230.7092 129.3599 15.49478601  1282
1998-067XS              
1 66906U 98067XS  25344.02220671  .00036365  00000+0  63424-3 0  9999
2 66906  51.6303 155.8936 0003912 190.7132 169.3774 15.50350034  1196
1998-067XT              
1 66907U 98067XT  25343.50529068  .00076342  00000+0  12921-2 0  9998
2 66907  51.6307 158.4423 0004803 208.5081 151.5646 15.50864429  1113
1998-067XU              
1 66908U 98067XU  25344.60042594  .00090678  00000+0  15174-2 0  9996
2 66908  51.6304 153.0048 0004807 213.3115 146.7573 15.51106152  1287
SILVERSAT               
1 66909U 98067XV  25344.60019765  .00092744  00000+0  15462-2 0  9997
2 66909  51.6305 153.0034 0004664 216.0058 144.0618 15.51201749  1280
1998-067XW              
1 66910U 98067XW  25344.47007597  .00083191  00000+0  13818-2 0  9993
2 66910  51.6299 153.6351 0005541 197.1967 162.8836 15.51350337  1261
1998-067XX              
1 66911U 98067XX  25343.11695649  .00085582  00000+0  14246-2 0  9997
2 66911  51.6296 160.3494 0005703 191.2268 168.8595 15.51276485  1046
1998-067XY              
1 66912U 98067XY  25344.53680831  .00068898  00000+0  11701-2 0  9996
2 66912  51.6309 153.3305 0004770 212.0937 147.9763 15.50813363  1263
